CCSDS_OMM_VERS = 2.0
CREATION_DATE  = 
ORIGINATOR     = 

OBJECT_NAME    = CYGNUS NG-23
OBJECT_ID      = 2025-208A
CENTER_NAME    = EARTH
REF_FRAME      = TEME
TIME_SYSTEM    = UTC
MEAN_ELEMENT_THEORY = SGP/SGP4

EPOCH          = 2025-12-31T05:49:14.584224
MEAN_MOTION    = 15.48966283
ECCENTRICITY   = .00074963
INCLINATION    = 51.6330
RA_OF_ASC_NODE = 50.8452
ARG_OF_PERICENTER = 322.9593
MEAN_ANOMALY   = 37.0877

EPHEMERIS_TYPE = 0
CLASSIFICATION_TYPE = U
NORAD_CAT_ID   = 65616
ELEMENT_SET_NO = 999
REV_AT_EPOCH   = 22
BSTAR          = .274611E-3
MEAN_MOTION_DOT = .147E-3
MEAN_MOTION_DDOT = 0

CCSDS_OMM_VERS = 2.0
CREATION_DATE  = 
ORIGINATOR     = 

OBJECT_NAME    = DRAGONFLY
OBJECT_ID      = 1998-067XH
CENTER_NAME    = EARTH
REF_FRAME      = TEME
TIME_SYSTEM    = UTC
MEAN_ELEMENT_THEORY = SGP/SGP4

EPOCH          = 2025-12-31T03:16:21.103968
MEAN_MOTION    = 15.79388283
ECCENTRICITY   = .00087421
INCLINATION    = 51.6247
RA_OF_ASC_NODE = 41.0992
ARG_OF_PERICENTER = 24.4892
MEAN_ANOMALY   = 335.6523

EPHEMERIS_TYPE = 0
CLASSIFICATION_TYPE = U
NORAD_CAT_ID   = 65729
ELEMENT_SET_NO = 999
REV_AT_EPOCH   = 1606
BSTAR          = .17652927E-2
MEAN_MOTION_DOT = .339218E-2
MEAN_MOTION_DDOT = 0

CCSDS_OMM_VERS = 2.0
CREATION_DATE  = 
ORIGINATOR     = 

OBJECT_NAME    = 1998-067XK
OBJECT_ID      = 1998-067XK
CENTER_NAME    = EARTH
REF_FRAME      = TEME
TIME_SYSTEM    = UTC
MEAN_ELEMENT_THEORY = SGP/SGP4

EPOCH          = 2025-12-31T03:47:52.252224
MEAN_MOTION    = 15.69726478
ECCENTRICITY   = .00053124
INCLINATION    = 51.6291
RA_OF_ASC_NODE = 43.5346
ARG_OF_PERICENTER = 359.7130
MEAN_ANOMALY   = 0.3863

EPHEMERIS_TYPE = 0
CLASSIFICATION_TYPE = U
NORAD_CAT_ID   = 65731
ELEMENT_SET_NO = 999
REV_AT_EPOCH   = 1603
BSTAR          = .13208037E-2
MEAN_MOTION_DOT = .163064E-2
MEAN_MOTION_DDOT = 0

CCSDS_OMM_VERS = 2.0
CREATION_DATE  = 
ORIGINATOR     = 

OBJECT_NAME    = RSP-03
OBJECT_ID      = 1998-067XL
CENTER_NAME    = EARTH
REF_FRAME      = TEME
TIME_SYSTEM    = UTC
MEAN_ELEMENT_THEORY = SGP/SGP4

EPOCH          = 2025-12-31T07:30:00.622944
MEAN_MOTION    = 15.74109286
ECCENTRICITY   = .00063541
INCLINATION    = 51.6265
RA_OF_ASC_NODE = 41.5448
ARG_OF_PERICENTER = 7.0025
MEAN_ANOMALY   = 353.1062

EPHEMERIS_TYPE = 0
CLASSIFICATION_TYPE = U
NORAD_CAT_ID   = 65732
ELEMENT_SET_NO = 999
REV_AT_EPOCH   = 1608
BSTAR          = .14401813E-2
MEAN_MOTION_DOT = .215571E-2
MEAN_MOTION_DDOT = 0

CCSDS_OMM_VERS = 2.0
CREATION_DATE  = 
ORIGINATOR     = 

OBJECT_NAME    = GHS-01
OBJECT_ID      = 1998-067XM
CENTER_NAME    = EARTH
REF_FRAME      = TEME
TIME_SYSTEM    = UTC
MEAN_ELEMENT_THEORY = SGP/SGP4

EPOCH          = 2025-12-30T08:21:52.063200
MEAN_MOTION    = 15.84202469
ECCENTRICITY   = .0009807
INCLINATION    = 51.6270
RA_OF_ASC_NODE = 44.0965
ARG_OF_PERICENTER = 24.2416
MEAN_ANOMALY   = 335.9046

EPHEMERIS_TYPE = 0
CLASSIFICATION_TYPE = U
NORAD_CAT_ID   = 65733
ELEMENT_SET_NO = 999
REV_AT_EPOCH   = 1596
BSTAR          = .18873592E-2
MEAN_MOTION_DOT = .460338E-2
MEAN_MOTION_DDOT = 0

CCSDS_OMM_VERS = 2.0
CREATION_DATE  = 
ORIGINATOR     = 

OBJECT_NAME    = YOTSUBA-KULOVER
OBJECT_ID      = 1998-067XN
CENTER_NAME    = EARTH
REF_FRAME      = TEME
TIME_SYSTEM    = UTC
MEAN_ELEMENT_THEORY = SGP/SGP4

EPOCH          = 2025-12-31T06:45:16.992288
MEAN_MOTION    = 15.62206285
ECCENTRICITY   = .00032244
INCLINATION    = 51.6298
RA_OF_ASC_NODE = 46.6101
ARG_OF_PERICENTER = 30.2152
MEAN_ANOMALY   = 329.9027

EPHEMERIS_TYPE = 0
CLASSIFICATION_TYPE = U
NORAD_CAT_ID   = 65941
ELEMENT_SET_NO = 999
REV_AT_EPOCH   = 1275
BSTAR          = .10776476E-2
MEAN_MOTION_DOT = .97371E-3
MEAN_MOTION_DDOT = 0

CCSDS_OMM_VERS = 2.0
CREATION_DATE  = 
ORIGINATOR     = 

OBJECT_NAME    = BOTAN
OBJECT_ID      = 1998-067XP
CENTER_NAME    = EARTH
REF_FRAME      = TEME
TIME_SYSTEM    = UTC
MEAN_ELEMENT_THEORY = SGP/SGP4

EPOCH          = 2025-12-31T07:14:14.624160
MEAN_MOTION    = 15.67293669
ECCENTRICITY   = .00041899
INCLINATION    = 51.6280
RA_OF_ASC_NODE = 45.2399
ARG_OF_PERICENTER = 18.6409
MEAN_ANOMALY   = 341.4740

EPHEMERIS_TYPE = 0
CLASSIFICATION_TYPE = U
NORAD_CAT_ID   = 65942
ELEMENT_SET_NO = 999
REV_AT_EPOCH   = 1277
BSTAR          = .14639361E-2
MEAN_MOTION_DOT = .163562E-2
MEAN_MOTION_DDOT = 0

CCSDS_OMM_VERS = 2.0
CREATION_DATE  = 
ORIGINATOR     = 

OBJECT_NAME    = E-KAGAKU-1
OBJECT_ID      = 1998-067XQ
CENTER_NAME    = EARTH
REF_FRAME      = TEME
TIME_SYSTEM    = UTC
MEAN_ELEMENT_THEORY = SGP/SGP4

EPOCH          = 2025-12-31T02:08:55.896576
MEAN_MOTION    = 15.62184482
ECCENTRICITY   = .00018553
INCLINATION    = 51.6301
RA_OF_ASC_NODE = 47.5837
ARG_OF_PERICENTER = 17.3955
MEAN_ANOMALY   = 342.7102

EPHEMERIS_TYPE = 0
CLASSIFICATION_TYPE = U
NORAD_CAT_ID   = 65943
ELEMENT_SET_NO = 999
REV_AT_EPOCH   = 1272
BSTAR          = .11676733E-2
MEAN_MOTION_DOT = .105555E-2
MEAN_MOTION_DDOT = 0

CCSDS_OMM_VERS = 2.0
CREATION_DATE  = 
ORIGINATOR     = 

OBJECT_NAME    = HRC MONOBLOCK CAMERA
OBJECT_ID      = 1998-067XR
CENTER_NAME    = EARTH
REF_FRAME      = TEME
TIME_SYSTEM    = UTC
MEAN_ELEMENT_THEORY = SGP/SGP4

EPOCH          = 2025-12-31T06:58:50.537280
MEAN_MOTION    = 15.55519530
ECCENTRICITY   = .00016104
INCLINATION    = 51.6310
RA_OF_ASC_NODE = 48.9198
ARG_OF_PERICENTER = 283.6591
MEAN_ANOMALY   = 76.4220

EPHEMERIS_TYPE = 0
CLASSIFICATION_TYPE = U
NORAD_CAT_ID   = 66052
ELEMENT_SET_NO = 999
REV_AT_EPOCH   = 1172
BSTAR          = .66013552E-3
MEAN_MOTION_DOT = .45764E-3
MEAN_MOTION_DDOT = 0

CCSDS_OMM_VERS = 2.0
CREATION_DATE  = 
ORIGINATOR     = 

OBJECT_NAME    = HTV-X1
OBJECT_ID      = 2025-241A
CENTER_NAME    = EARTH
REF_FRAME      = TEME
TIME_SYSTEM    = UTC
MEAN_ELEMENT_THEORY = SGP/SGP4

EPOCH          = 2025-12-31T05:49:14.584224
MEAN_MOTION    = 15.48966283
ECCENTRICITY   = .00074963
INCLINATION    = 51.6330
RA_OF_ASC_NODE = 50.8452
ARG_OF_PERICENTER = 322.9593
MEAN_ANOMALY   = 37.0877

EPHEMERIS_TYPE = 0
CLASSIFICATION_TYPE = U
NORAD_CAT_ID   = 66174
ELEMENT_SET_NO = 999
REV_AT_EPOCH   = 51
BSTAR          = .274611E-3
MEAN_MOTION_DOT = .147E-3
MEAN_MOTION_DDOT = 0

CCSDS_OMM_VERS = 2.0
CREATION_DATE  = 
ORIGINATOR     = 

OBJECT_NAME    = SZ-21 MODULE
OBJECT_ID      = 2025-246C
CENTER_NAME    = EARTH
REF_FRAME      = TEME
TIME_SYSTEM    = UTC
MEAN_ELEMENT_THEORY = SGP/SGP4

EPOCH          = 2025-12-31T01:40:01.124544
MEAN_MOTION    = 15.63556813
ECCENTRICITY   = .0003033
INCLINATION    = 41.4763
RA_OF_ASC_NODE = 264.1497
ARG_OF_PERICENTER = 3.4177
MEAN_ANOMALY   = 356.6683

EPHEMERIS_TYPE = 0
CLASSIFICATION_TYPE = U
NORAD_CAT_ID   = 66515
ELEMENT_SET_NO = 999
REV_AT_EPOCH   = 731
BSTAR          = .42604371E-3
MEAN_MOTION_DOT = .40549E-3
MEAN_MOTION_DDOT = 0

CCSDS_OMM_VERS = 2.0
CREATION_DATE  = 
ORIGINATOR     = 

OBJECT_NAME    = SHENZHOU-22
OBJECT_ID      = 2025-272A
CENTER_NAME    = EARTH
REF_FRAME      = TEME
TIME_SYSTEM    = UTC
MEAN_ELEMENT_THEORY = SGP/SGP4

EPOCH          = 2025-12-31T02:14:33.346464
MEAN_MOTION    = 15.59942629
ECCENTRICITY   = .00097473
INCLINATION    = 41.4668
RA_OF_ASC_NODE = 265.2206
ARG_OF_PERICENTER = 186.8831
MEAN_ANOMALY   = 173.1875

EPHEMERIS_TYPE = 0
CLASSIFICATION_TYPE = U
NORAD_CAT_ID   = 66645
ELEMENT_SET_NO = 999
REV_AT_EPOCH   = 26598
BSTAR          = .32907806E-3
MEAN_MOTION_DOT = .27123E-3
MEAN_MOTION_DDOT = 0

